#dP2021 12 17  0  0  0.00000000      96   u+U IGb08 FIT  WHU
## 2188 432000.00000000   900.00000000 59565     0.000000000
+  119   G01G02G03G04G05G06G07G08G09G10G12G13G14G15G16G17G18
+        G19G20G21G22G23G24G25G26G28G29G30G31G32R02R03R04R05
+        R07R08R09R11R12R13R14R15R17R18R19R20R21R22R24E01E02
+        E03E04E05E07E08E09E11E12E13E14E15E18E19E21E24E25E26
+        E27E30E31E33E36C01C02C03C04C05C06C07C08C09C10C11C12
+        C13C14C16C19C20C21C22C23C24C25C26C27C28C29C30C32C33
+        C34C35C36C37C38C39C40C41C42C43C44C45C46J01J02J03J07
+          0  0  0  0  0  0  0  0  0  0  0  0  0  0  0  0  0
+          0  0  0  0  0  0  0  0  0  0  0  0  0  0  0  0  0
+          0  0  0  0  0  0  0  0  0  0  0  0  0  0  0  0  0
++         4  4  4  4  4  3  4  3  4  4  4  4  4  4  3  4  4
++         4  4  4  4  4  4  4  4  3  4  4  4  3  3  3  3  3
++         3  4  4  4  4  4  4  4  4  3  4  4  4  4  4  9  9
++         9  9  9  9  9  9  9  9  9 10  9  0  9  9  9  9  9
++         9  9  9  9  9  0  9  9 10  9  8  0  9  8  9  9  9
++         9  9  7 10 10 10 10 10 10  9  9  9 10  9  9 10 10
++         9  9  9 10 10  9 10  9  9  9  9 10 10  0  9  8  0
++         0  0  0  0  0  0  0  0  0  0  0  0  0  0  0  0  0
++         0  0  0  0  0  0  0  0  0  0  0  0  0  0  0  0  0
++         0  0  0  0  0  0  0  0  0  0  0  0  0  0  0  0  0
%c M  cc GPS ccc cccc cccc cccc cccc ccccc ccccc ccccc ccccc
%c cc cc ccc ccc cccc cccc cccc cccc ccccc ccccc ccccc ccccc
%f  1.2500000  1.025000000  0.00000000000  0.000000000000000
%f  0.0000000  0.000000000  0.00000000000  0.000000000000000
%i    0    0    0    0      0      0      0      0         0
%i    0    0    0    0      0      0      0      0         0
/* GNSS RESEARCH CENTER, WUHAN UNIVERSITY (WHU), P. R. CHINA
/* POSITION AND NAVIGATION DATA ANALYST (PANDA) SOFTWARE    
/* PCV:IGS08_2186 OL/AL:FES2004  NONE     NN ORB:CoM CLK:CoN
/* JING GUO (EMAIL:JINGGUO@WHU.EDU.CN)                      
/*
*  2021 12 17 18 15  0.00000000
PG01 -22489.930833 -14261.712220   2216.878212    481.498154
PG02   8935.205694  18911.800423  16972.932470   -645.972247
PG03 -12893.395238 -11265.225073  20229.588090    -44.895986
PG04 -20615.471025  -3634.596953  16393.233318   -198.688132
PG05   6287.865659  23575.407799 -10469.812766    -64.738527
PG06  -7010.029637  12996.009852  22142.814737    145.353965
PG07 -21643.485142  -1985.776158 -15218.531860    291.947030
PG08 -11340.465199 -10949.984814 -21434.462958    -48.461171
PG09 -24734.267342   6570.392225   7091.277090   -360.241729
PG10  11593.241966 -18560.868949 -14709.567504   -271.016579
PG12  11121.863676  14175.970494  19303.125923   -142.193237
PG13   2666.943017  14978.909396 -21916.573305    230.971727
PG14 -12783.187701  17983.594678 -14745.048387    -56.725184
PG15  13310.159584  10198.237421 -21052.574511    -98.441100
PG16  -1276.443798 -25059.103319  -8203.278038   -441.840462
PG17 -21816.418552  13695.963979   6982.854449    548.822114
PG18  20822.442723   1163.941917 -16509.356291    277.797037
PG19 -16368.457947  15424.544867  13727.648957     93.470350
PG20   1396.786205  26661.247035    567.157701    517.599850
PG21 -20115.534518 -16569.735767  -5847.986827    153.970186
PG22 -11422.688065 -18957.936531  15005.043279   -439.149290
PG23  14806.455251  -7215.753241 -20835.047476     20.838846
PG24  21935.293774  15194.539474  -2625.481014    275.095188
PG25  15064.670311   1393.718772  21559.598572    257.200435
PG26   5189.034793 -25180.562565   5930.668168    165.895762
PG28  -9480.337280  23587.832033  -7537.573033    441.161464
PG29  24313.650235  -1726.474520  10583.553757   -455.264434
PG30 -15232.492707   7499.377394 -20406.825882   -500.030514
PG31   5442.283021 -14675.681564  21285.474181   -155.504686
PG32  18477.666930 -16382.594107   9647.161110    -36.546837
PR02  17705.886685 -17003.059810  -6770.488089    503.580260
PR03  10060.700207 -20878.776615  10624.102176     48.300736
PR04  -2840.785544 -12867.322727  21859.063815    119.263244
PR05 -14317.147897   2160.572032  21012.614224     84.350591
PR07  -9728.276424  20801.999075 -11128.578348    -39.145758
PR08   2956.160899  12902.890677 -21760.971590    -62.591753
PR09  -8148.610877   9100.639740 -22368.761888     29.234215
PR11  11352.640834  22518.961668   3811.123554 999999.999999
PR12  13782.977517   9600.124591  19230.386391    287.309167
PR13   8412.016720  -8021.922663  22688.013195    -15.736858
PR14  -2417.380578 -22062.407342  12592.119633     72.189890
PR15 -11313.369100 -22416.671174  -4462.631580     99.514492
PR17   3524.466651 -10101.992198 -23141.993039    484.415631
PR18 -14387.477850 -10553.814348 -18229.340097    100.809744
PR19 -24183.828798  -6584.195217  -4714.124695   -171.046315
PR20 -20568.465315   2875.759659  14851.669366    -61.380687
PR21  -1953.890018  10294.247898  23262.983440   -262.958698
PR22  15061.662011  10461.258653  17677.060960   -152.093950
PR24  20089.693236  -3918.438023 -15210.036559     71.614041
PE01  14468.466063 -12740.666873  22460.599648   -540.029301
PE02 -14409.748065  12939.712998 -22392.198615    267.530093
PE03 -25324.379991  15187.068334   1976.163278   -507.344017
PE04  12940.218490 -21705.957514  15408.755761   -922.845955
PE05 -23069.945124   -384.610117  18537.881959   -225.704020
PE07   7409.164235  15528.518083 -24087.854150   -618.597982
PE08 -12518.465508  21686.162502 -15785.858697   5887.312337
PE09  -7588.471666 -15256.217811  24199.660772   5426.699907
PE11 -17679.462876 -18980.895921 -14269.097029   4872.088345
PE12   3105.285767 -16266.433350 -24529.016619   4856.094723
PE13  17219.753527  18992.963833  14805.883985    424.800495
PE14  19301.011897 -20802.518821 -14737.275310  -1677.975824
PE15  -3160.410566  16162.208256  24608.117615    774.743083
PE18 -18987.227886  13331.229747   6926.934753  -1845.841799
PE19  25937.586630 -13575.336059  -4353.276861    454.602126
PE21  16260.692724   8651.394667  23174.949722   -705.822160
PE24  -8062.375864 -26813.322193  -9565.554116  -1285.034707
PE25 -16221.265290  -8901.760751 -23094.145854   -557.162820
PE26  27454.929009  10050.293774  -4643.626794   -580.921860
PE27   8810.860555  26211.922526  10586.940051   -188.957980
PE30  -4650.557445  27769.734844  -9176.521278   -117.485172
PE31   3774.276582 -28203.037738   8145.302555   -489.462058
PE33  21605.606600  -3806.070539 -19860.059010   -461.311272
PE36 -27381.249526 -10636.466414   3667.885057   -305.159849
PC01 -34267.458012  24546.891454    337.170538   -334.823088
PC02   4357.720096  41935.447888     15.117296    797.913885
PC03 -14825.021355  39439.918552    832.192888    385.371733
PC04 -39595.553367  14433.810855    577.411080    397.407010
PC05  21830.340791  36065.716386   -293.973644    336.438915
PC06 -11591.003338  24108.664598 -32638.306607    651.600469
PC07 -12761.117622  39983.993499   3390.093504    110.352471
PC08   2880.151563  32154.094324  27222.718567    -14.721250
PC09  -4654.757078  24253.129584 -33896.034895   -356.711289
PC10  -6363.943833  40160.425983  10436.307639    137.595002
PC11   8253.376701  14596.026268  22385.783810   -327.427345
PC12 -12535.085712  13940.131170  20708.432267   -427.685479
PC13   6301.935943  34501.109086  23734.227541   -175.113248
PC14    990.336403  22571.150849 -16332.077860    494.194072
PC16 -17692.877888  22557.332422 -30870.772344     26.981238
PC19  -8577.567457 -15597.119592  21513.130936    921.407520
PC20   5423.774290 -25454.847675  10106.115380   -795.517350
PC21 -17044.003892  20562.294300   8075.466697   -948.898393
PC22 -18146.422254   3637.506472  20875.015875   -965.687524
PC23  19910.918748   7365.753134  18118.426975   -963.384584
PC24   2960.836472  23901.866768 -14135.955616   -951.017251
PC25  17344.176755  21571.974630   3644.976906   -808.622337
PC26 -10764.467245  12758.817892 -22378.824630    806.460953
PC27  21051.774252 -10765.540605 -14824.937047    646.658128
PC28  27837.717224    635.529672   1904.885136      9.965171
PC29 -18616.454179 -11057.184067 -17606.819410    488.868795
PC30   2157.973093 -15966.649311 -22783.728924    488.932273
PC32  16904.794179 -20667.877707  -8108.731374   -956.998466
PC33   8623.486929  15625.797777 -21450.858655   -960.052921
PC34  -1157.257322  15995.819369  22833.233532   -512.626404
PC35 -27815.617444    -44.381888  -2461.465110     50.500153
PC36 -16602.709364 -22191.452109  -3191.134656   -835.350618
PC37  11836.390520 -11458.874622  22533.889364   -915.319234
PC38  -6287.815654  27421.663491  31483.805740    197.268461
PC39 -21593.552871  22613.349297 -28381.181178     34.312288
PC40 -20105.573861  36972.469167   -675.092657    227.349230
PC41  18052.405205  -3278.933826 -20979.644638   -916.766967
PC42  -6104.399666  25604.127220  -9216.155912   -932.929366
PC43  18004.057338  11516.191488  17929.631403   -953.890267
PC44 -20871.395987  11460.103279  14574.682287    501.321634
PC45 -19788.859952  -7150.002849 -18317.233465    629.414072
PC46  -4096.896669 -24226.882894  13187.577974    -65.753933
PJ01 -35562.484328  22414.951571   8025.083790     92.642674
PJ02 -20148.503739  27910.739839 -19742.405976     -0.400959
PJ03 -28986.124794  24815.282910  23182.634881     -9.566706
PJ07 -25352.369431  33700.664884    -17.410805     -0.013595
EOF
